{
"type": "FeatureCollection",
"name": "Buferised",
"crs": { "type": "name", "properties": { "name": "urn:ogc:def:crs:OGC:1.3:CRS84" } },
"features": [
{ "type": "Feature", "properties": { "ID": 1.0 }, "geometry": { "type": "MultiPolygon", "coordinates": [ [ [ [ 37.657535724699137, 55.969710199308267 ], [ 37.657536865927824, 55.969712524043103 ], [ 37.657705035221269, 55.969886659985896 ], [ 37.657834040762573, 55.969984124522206 ], [ 37.657926063869773, 55.970218298136409 ], [ 37.658100923675178, 55.970418802541083 ], [ 37.658316637482152, 55.970594040612141 ], [ 37.658514699766144, 55.970711203652201 ], [ 37.658614568529408, 55.970735439274087 ], [ 37.658730797840668, 55.970846297501794 ], [ 37.658943245431885, 55.970950775059443 ], [ 37.659029865713663, 55.970964074725714 ], [ 37.65952760661937, 55.971389487661725 ], [ 37.659178345135309, 55.972109087745942 ], [ 37.65910535530486, 55.972358939699603 ], [ 37.659118639312645, 55.972618895559776 ], [ 37.659216717805926, 55.972860005748807 ], [ 37.659717730518885, 55.973669933219298 ], [ 37.659906175230475, 55.973878362686058 ], [ 37.660156249165283, 55.974006492616482 ], [ 37.660435499331115, 55.974037695129546 ], [ 37.660483112806205, 55.974034364686418 ], [ 37.661468139569209, 55.974760937710947 ], [ 37.661183458165468, 55.974825515878152 ], [ 37.659048012397328, 55.975064491121998 ], [ 37.656535545977718, 55.97503392955759 ], [ 37.656314701720966, 55.975063053510475 ], [ 37.656111095498318, 55.97515341332717 ], [ 37.655941333194477, 55.975297639367007 ], [ 37.655819260423819, 55.975483968723353 ], [ 37.655754833298339, 55.975697204592464 ], [ 37.655003314228878, 55.980665098993128 ], [ 37.655012435208775, 55.980947888873899 ], [ 37.655121833945742, 55.98120882033097 ], [ 37.655317115747344, 55.981413559987374 ], [ 37.657209830440777, 55.982783901326009 ], [ 37.65744308329181, 55.982899200169896 ], [ 37.657701281154374, 55.982931365052622 ], [ 37.703349106113357, 55.980938125235603 ], [ 37.703580114383222, 55.980892459247649 ], [ 37.703786967088433, 55.980779932977171 ], [ 37.703950811460196, 55.980610802184458 ], [ 37.704056714553552, 55.980400481624322 ], [ 37.704095024251409, 55.980168140129422 ], [ 37.704062248968405, 55.979934953543129 ], [ 37.703961375877618, 55.979722174731322 ], [ 37.703801598656533, 55.979549196574247 ], [ 37.69701009299191, 55.974129556483497 ], [ 37.696757757736876, 55.973995213014533 ], [ 37.692304311399397, 55.972593458362205 ], [ 37.692114657653967, 55.972558745195059 ], [ 37.688335836547012, 55.972342659434418 ], [ 37.687200940833563, 55.972176332001645 ], [ 37.686974562814761, 55.972176356187013 ], [ 37.685333020342895, 55.972417294779071 ], [ 37.68529017397006, 55.972417294779071 ], [ 37.685133821521937, 55.972198563721768 ], [ 37.685000992236269, 55.97205493089136 ], [ 37.6848365998747, 55.971948868831419 ], [ 37.683277893656587, 55.971201232336831 ], [ 37.68302836837411, 55.971129473779619 ], [ 37.682769113979255, 55.971143591707076 ], [ 37.682528856471365, 55.971242021819485 ], [ 37.682334216949833, 55.971413857827898 ], [ 37.682250714831021, 55.971517048099379 ], [ 37.682102777349186, 55.971809067437633 ], [ 37.682054067779852, 55.971994030442964 ], [ 37.682029000909118, 55.972224511291074 ], [ 37.682072786554272, 55.972452179002076 ], [ 37.682142909718713, 55.972584174086158 ], [ 37.682055702632447, 55.972615750183813 ], [ 37.681901018192761, 55.972692038844244 ], [ 37.681846465844743, 55.972726926010004 ], [ 37.679989899915974, 55.97300431140539 ], [ 37.67872613809476, 55.97302607035158 ], [ 37.67858806354684, 55.973013571974597 ], [ 37.678421191270587, 55.97281918630668 ], [ 37.678188690109693, 55.972687036715811 ], [ 37.677925216360556, 55.972641190366978 ], [ 37.677646728484007, 55.972641190366978 ], [ 37.677422168937206, 55.972639271917281 ], [ 37.677300909900374, 55.972647707424009 ], [ 37.675046352692043, 55.972982574945263 ], [ 37.675003479904731, 55.972990171381248 ], [ 37.673364612385654, 55.973327985840854 ], [ 37.670371036633533, 55.97368033453624 ], [ 37.670122375141602, 55.973752912165573 ], [ 37.669925645271498, 55.973892656181512 ], [ 37.668457589641136, 55.974118269160996 ], [ 37.667233203766258, 55.974115949890347 ], [ 37.667178087574975, 55.974117794977474 ], [ 37.665870250813477, 55.974207945125876 ], [ 37.665454003165102, 55.974093336721353 ], [ 37.66472843497489, 55.973630805398095 ], [ 37.66464375251244, 55.973583943364133 ], [ 37.663847041438729, 55.973205594176292 ], [ 37.662142382556226, 55.9720487444689 ], [ 37.66213602984444, 55.972031364812928 ], [ 37.661993224324675, 55.970723669817176 ], [ 37.661943747478368, 55.970522951512258 ], [ 37.661843280351206, 55.970342280118253 ], [ 37.661493615228636, 55.969873039664677 ], [ 37.661237919468419, 55.969652312121369 ], [ 37.660801454497708, 55.969417331342243 ], [ 37.660696278444846, 55.969317635800813 ], [ 37.660473525258254, 55.969212369802356 ], [ 37.659619904038138, 55.968964256081044 ], [ 37.659170077160262, 55.968773917623466 ], [ 37.658648112008258, 55.968402764293586 ], [ 37.658472653342628, 55.968309114339235 ], [ 37.658279214213522, 55.968262882741534 ], [ 37.657952164248115, 55.968227834330108 ], [ 37.657715303025213, 55.968238696626209 ], [ 37.657492649413996, 55.968320223295478 ], [ 37.657304778463001, 55.968464880594503 ], [ 37.657169051013184, 55.968659300983759 ], [ 37.657098009411619, 55.968885518399617 ], [ 37.657098218494113, 55.969122628468313 ], [ 37.657169658939708, 55.969348720244199 ], [ 37.65730572905607, 55.969542900963688 ], [ 37.657493854830904, 55.969687226710647 ], [ 37.657535724699137, 55.969710199308267 ] ] ] ] } }
]
}
