{
"type": "FeatureCollection",
"name": "Bufer",
"crs": { "type": "name", "properties": { "name": "urn:ogc:def:crs:OGC:1.3:CRS84" } },
"features": [
{ "type": "Feature", "properties": { "ID": 1.0 }, "geometry": { "type": "MultiPolygon", "coordinates": [ [ [ [ 37.6612178340851, 55.970808345530202 ], [ 37.66086816896253, 55.970339105076626 ], [ 37.660318446680257, 55.970043149664718 ], [ 37.660255820091137, 55.969961372112238 ], [ 37.659358172313731, 55.969700461622629 ], [ 37.658787574501737, 55.969459020497666 ], [ 37.658196101160051, 55.969038442036712 ], [ 37.657869051194645, 55.969003393625286 ], [ 37.658223935199658, 55.969198106620432 ], [ 37.658175225630345, 55.969264308815561 ], [ 37.658731906422524, 55.969684884821319 ], [ 37.658592736224485, 55.969813393244536 ], [ 37.658808450031458, 55.969988631315594 ], [ 37.659024163838424, 55.970008102163376 ], [ 37.659177251056278, 55.970206704251147 ], [ 37.659344255293931, 55.970206704251147 ], [ 37.660492409427796, 55.971188017250512 ], [ 37.659880060556404, 55.972449668819699 ], [ 37.660381073269363, 55.973259596290191 ], [ 37.660715081744669, 55.973236233235291 ], [ 37.662245953923168, 55.974365431416174 ], [ 37.662468626240035, 55.974443305937811 ], [ 37.662552128358868, 55.974778164594476 ], [ 37.662649547497494, 55.974856038285239 ], [ 37.662343373061795, 55.975362213453941 ], [ 37.661313513596269, 55.975595830528647 ], [ 37.659086790427537, 55.97584502051987 ], [ 37.656526058783506, 55.975813871858755 ], [ 37.655774539714045, 55.980781766259419 ], [ 37.657667254407478, 55.982152107598054 ], [ 37.703315079366462, 55.980158867781036 ], [ 37.696523573701839, 55.974739227690286 ], [ 37.69207012736436, 55.973337473037958 ], [ 37.688256863937916, 55.973119417749096 ], [ 37.68708783427433, 55.972948087731304 ], [ 37.68538995785817, 55.973197294779069 ], [ 37.684888945145204, 55.973197294779069 ], [ 37.684499268590685, 55.972652152277 ], [ 37.682940562372572, 55.971904515782413 ], [ 37.68285706025376, 55.972007706053894 ], [ 37.682808350684425, 55.972192669059226 ], [ 37.683291967122649, 55.972548963724449 ], [ 37.683267612337985, 55.973006495777163 ], [ 37.68232125499128, 55.973349154536621 ], [ 37.682126416714013, 55.973473756969369 ], [ 37.680054520390684, 55.973783314401153 ], [ 37.678697610959723, 55.973806677125673 ], [ 37.677987842949676, 55.973742429599305 ], [ 37.677925216360556, 55.973421190366977 ], [ 37.677643396709513, 55.973421190366977 ], [ 37.677415505510147, 55.973419243454416 ], [ 37.675160948301816, 55.973754110975669 ], [ 37.673489166297813, 55.974098709991566 ], [ 37.670462214490286, 55.974454987102519 ], [ 37.67049265797111, 55.974594674090724 ], [ 37.668516441158829, 55.974898382038781 ], [ 37.667231726268113, 55.974895948490989 ], [ 37.665791314718327, 55.974995237116907 ], [ 37.66513373553255, 55.974814181195931 ], [ 37.664309152109119, 55.974288530172196 ], [ 37.663458474273625, 55.973884552772112 ], [ 37.661496174481186, 55.972552857637091 ], [ 37.661370921302932, 55.972210191824388 ], [ 37.6612178340851, 55.970808345530202 ] ] ] ] } }
]
}
