{
"type": "FeatureCollection",
"name": "uchastock",
"crs": { "type": "name", "properties": { "name": "urn:ogc:def:crs:OGC:1.3:CRS84" } },
"features": [
{ "type": "Feature", "properties": { "ID": 1, "Name": "150" }, "geometry": { "type": "MultiPolygon", "coordinates": [ [ [ [ 37.680054520390684, 55.973783314401153 ], [ 37.680064958155533, 55.972042751743842 ], [ 37.677298950469343, 55.972200456955818 ], [ 37.677351139293613, 55.97248082018978 ], [ 37.677455516942153, 55.97248082018978 ], [ 37.677643396709513, 55.973421190366977 ], [ 37.677925216360556, 55.973421190366977 ], [ 37.677987842949676, 55.973742429599305 ], [ 37.678697610959723, 55.973806677125665 ], [ 37.680054520390684, 55.973783314401153 ] ] ] ] } },
{ "type": "Feature", "properties": { "ID": 2, "Name": "11" }, "geometry": { "type": "MultiPolygon", "coordinates": [ [ [ [ 37.673489166297813, 55.974098709991566 ], [ 37.672487140871873, 55.973292693927135 ], [ 37.670483090019992, 55.973409508890086 ], [ 37.670462214490286, 55.974454987102519 ], [ 37.673489166297813, 55.974098709991566 ] ] ] ] } },
{ "type": "Feature", "properties": { "ID": 3, "Name": "105" }, "geometry": { "type": "MultiPolygon", "coordinates": [ [ [ [ 37.667231726268113, 55.974895948490989 ], [ 37.667273477327527, 55.973780394059588 ], [ 37.66559299718611, 55.973751190631909 ], [ 37.664977169059746, 55.973897207549854 ], [ 37.664309152109119, 55.974288530172196 ], [ 37.66513373553255, 55.974814181195931 ], [ 37.665791314718327, 55.974995237116907 ], [ 37.667231726268113, 55.974895948490989 ] ] ] ] } },
{ "type": "Feature", "properties": { "ID": 4, "Name": "106" }, "geometry": { "type": "MultiPolygon", "coordinates": [ [ [ [ 37.667231726268113, 55.974895948490989 ], [ 37.668516441158829, 55.974898382038781 ], [ 37.67049265797111, 55.974594674090724 ], [ 37.670462214490286, 55.974454987102519 ], [ 37.670483090019992, 55.973409508890086 ], [ 37.667273477327527, 55.973780394059588 ], [ 37.667231726268113, 55.974895948490989 ] ] ] ] } },
{ "type": "Feature", "properties": { "ID": 5, "Name": "24" }, "geometry": { "type": "MultiPolygon", "coordinates": [ [ [ [ 37.671000629193976, 55.973153975700484 ], [ 37.669657636782802, 55.97325521571846 ], [ 37.668029345465634, 55.97331751713628 ], [ 37.666595892425747, 55.973138400289578 ], [ 37.665259858524486, 55.972663347244897 ], [ 37.664536173494632, 55.971868983219522 ], [ 37.663088803434931, 55.972468651688814 ], [ 37.663200139593371, 55.972951494869719 ], [ 37.663659401246932, 55.973309729464532 ], [ 37.664977169059746, 55.973897207549854 ], [ 37.66559299718611, 55.973751190631909 ], [ 37.667273477327527, 55.973780394059588 ], [ 37.670483090019992, 55.973409508890086 ], [ 37.67099975938023, 55.973379331725113 ], [ 37.671000629193976, 55.973153975700484 ] ] ] ] } },
{ "type": "Feature", "properties": { "ID": 6, "Name": "81" }, "geometry": { "type": "MultiPolygon", "coordinates": [ [ [ [ 37.664536173494632, 55.971868983219522 ], [ 37.663987321026198, 55.971610519348829 ], [ 37.663555893412259, 55.971275633272221 ], [ 37.663207967917145, 55.970823921879209 ], [ 37.662094606332786, 55.970948532445412 ], [ 37.6612178340851, 55.970808345530202 ], [ 37.661370921302932, 55.972210191824388 ], [ 37.661496174481186, 55.972552857637091 ], [ 37.663458474273625, 55.973884552772112 ], [ 37.664309152109119, 55.974288530172196 ], [ 37.664977169059746, 55.973897207549854 ], [ 37.663659401246932, 55.973309729464532 ], [ 37.663200139593371, 55.972951494869719 ], [ 37.663088803434931, 55.972468651688814 ], [ 37.664536173494632, 55.971868983219522 ] ] ] ] } },
{ "type": "Feature", "properties": { "ID": 7, "Name": "Required_303" }, "geometry": { "type": "MultiPolygon", "coordinates": [ [ [ [ 37.675160948301816, 55.973754110975669 ], [ 37.677415505510147, 55.973419243454416 ], [ 37.676886658757574, 55.972321169152856 ], [ 37.673657910162909, 55.972757287500293 ], [ 37.675160948301816, 55.973754110975669 ] ] ] ] } }
]
}
